{
  "norad_id": 65053,
  "name": "NISAR",
  "history": [
    {
      "epoch": "2026-03-28T21:51:27.074592Z",
      "apogee_km": 751.1067900085081,
      "perigee_km": 749.3661837704785,
      "latitude_deg": 4.830089841633793e-05,
      "longitude_deg": 122.55468969096513,
      "height_km": 753.1478291710232,
      "semi_major_axis_km": 7128.373486889493,
      "eccentricity": 0.00012209,
      "inclination_deg": 98.406,
      "raan_deg": 276.7419,
      "arg_perigee_deg": 87.2621,
      "mean_anomaly_deg": 272.8709,
      "mean_motion_rev_day": 14.42504221
    },
    {
      "epoch": "2026-03-29T04:30:59.228064Z",
      "apogee_km": 751.1125789446196,
      "perigee_km": 749.3418932683717,
      "latitude_deg": -7.954314863607443e-06,
      "longitude_deg": 22.67095262036033,
      "height_km": 753.1650563737903,
      "semi_major_axis_km": 7128.364236106496,
      "eccentricity": 0.0001242,
      "inclination_deg": 98.406,
      "raan_deg": 277.0156,
      "arg_perigee_deg": 89.0244,
      "mean_anomaly_deg": 271.1088,
      "mean_motion_rev_day": 14.42507029
    },
    {
      "epoch": "2026-03-30T03:49:22.181664Z",
      "apogee_km": 751.1103396571361,
      "perigee_km": 749.3667390002165,
      "latitude_deg": 7.570378156297637e-06,
      "longitude_deg": 33.075052083899756,
      "height_km": 753.1884936440887,
      "semi_major_axis_km": 7128.3755393286765,
      "eccentricity": 0.0001223,
      "inclination_deg": 98.4059,
      "raan_deg": 277.9725,
      "arg_perigee_deg": 89.8048,
      "mean_anomaly_deg": 270.3282,
      "mean_motion_rev_day": 14.42503598
    },
    {
      "epoch": "2026-03-30T05:29:15.249408Z",
      "apogee_km": 751.1135692871276,
      "perigee_km": 749.3634105368446,
      "latitude_deg": -4.5001484975534644e-05,
      "longitude_deg": 8.1039758061012,
      "height_km": 753.190388423555,
      "semi_major_axis_km": 7128.375489911986,
      "eccentricity": 0.00012276,
      "inclination_deg": 98.4059,
      "raan_deg": 278.0409,
      "arg_perigee_deg": 89.9328,
      "mean_anomaly_deg": 270.2002,
      "mean_motion_rev_day": 14.42503613
    },
    {
      "epoch": "2026-03-30T13:48:40.562208Z",
      "apogee_km": 751.1026454055036,
      "perigee_km": 749.3714484844622,
      "latitude_deg": 8.425049928433563e-06,
      "longitude_deg": -116.7515437759072,
      "height_km": 753.179225503283,
      "semi_major_axis_km": 7128.374046944982,
      "eccentricity": 0.00012143,
      "inclination_deg": 98.4059,
      "raan_deg": 278.3827,
      "arg_perigee_deg": 89.2878,
      "mean_anomaly_deg": 270.8451,
      "mean_motion_rev_day": 14.42504051
    },
    {
      "epoch": "2026-03-30T20:28:12.811584Z",
      "apogee_km": 751.1005439742112,
      "perigee_km": 749.3717709160683,
      "latitude_deg": 2.9027469610965097e-05,
      "longitude_deg": 143.3640074223299,
      "height_km": 753.1738400843536,
      "semi_major_axis_km": 7128.373157445139,
      "eccentricity": 0.00012126,
      "inclination_deg": 98.406,
      "raan_deg": 278.6561,
      "arg_perigee_deg": 88.989,
      "mean_anomaly_deg": 271.1439,
      "mean_motion_rev_day": 14.42504321
    },
    {
      "epoch": "2026-03-31T19:46:35.668416Z",
      "apogee_km": 751.0995299493907,
      "perigee_km": 749.3673359341847,
      "latitude_deg": 2.530126468904468e-06,
      "longitude_deg": 153.76871809662157,
      "height_km": 753.168243220063,
      "semi_major_axis_km": 7128.370432941787,
      "eccentricity": 0.0001215,
      "inclination_deg": 98.4059,
      "raan_deg": 279.6132,
      "arg_perigee_deg": 88.8007,
      "mean_anomaly_deg": 271.3322,
      "mean_motion_rev_day": 14.42505148
    },
    {
      "epoch": "2026-04-01T19:04:58.477728Z",
      "apogee_km": 751.096381074597,
      "perigee_km": 749.3670388255641,
      "latitude_deg": 2.568580273477152e-05,
      "longitude_deg": 164.17371991543564,
      "height_km": 753.1655306449175,
      "semi_major_axis_km": 7128.36870995008,
      "eccentricity": 0.0001213,
      "inclination_deg": 98.4059,
      "raan_deg": 280.5704,
      "arg_perigee_deg": 88.7331,
      "mean_anomaly_deg": 271.3998,
      "mean_motion_rev_day": 14.42505671
    },
    {
      "epoch": "2026-04-02T20:03:14.634720Z",
      "apogee_km": 751.1128406764255,
      "perigee_km": 749.3934729705998,
      "latitude_deg": 2.494776444788027e-06,
      "longitude_deg": 149.6063744763937,
      "height_km": 753.209044544845,
      "semi_major_axis_km": 7128.390156823512,
      "eccentricity": 0.0001206,
      "inclination_deg": 98.4059,
      "raan_deg": 281.5959,
      "arg_perigee_deg": 90.1959,
      "mean_anomaly_deg": 269.9369,
      "mean_motion_rev_day": 14.42499161
    },
    {
      "epoch": "2026-04-02T21:43:07.716288Z",
      "apogee_km": 751.114571833743,
      "perigee_km": 749.3910697428728,
      "latitude_deg": 6.904513908688201e-05,
      "longitude_deg": 124.63522290019648,
      "height_km": 753.2106569329242,
      "semi_major_axis_km": 7128.389820788308,
      "eccentricity": 0.00012089,
      "inclination_deg": 98.4059,
      "raan_deg": 281.6643,
      "arg_perigee_deg": 90.3259,
      "mean_anomaly_deg": 269.807,
      "mean_motion_rev_day": 14.42499263
    },
    {
      "epoch": "2026-04-03T19:21:37.767168Z",
      "apogee_km": 751.1175133971574,
      "perigee_km": 749.3810385003362,
      "latitude_deg": -3.455927914147851e-05,
      "longitude_deg": 160.00993388538566,
      "height_km": 753.210181844731,
      "semi_major_axis_km": 7128.3862759487465,
      "eccentricity": 0.0001218,
      "inclination_deg": 98.4058,
      "raan_deg": 282.553,
      "arg_perigee_deg": 90.5257,
      "mean_anomaly_deg": 269.6072,
      "mean_motion_rev_day": 14.42500339
    },
    {
      "epoch": "2026-04-04T18:40:00.854688Z",
      "apogee_km": 751.1114352283766,
      "perigee_km": 749.3820893276479,
      "latitude_deg": 2.206001714015423e-05,
      "longitude_deg": 170.41366643071402,
      "height_km": 753.2028773125198,
      "semi_major_axis_km": 7128.383762278012,
      "eccentricity": 0.0001213,
      "inclination_deg": 98.4058,
      "raan_deg": 283.5101,
      "arg_perigee_deg": 90.2104,
      "mean_anomaly_deg": 269.9225,
      "mean_motion_rev_day": 14.42501102
    },
    {
      "epoch": "2026-04-05T12:58:44.428800Z",
      "apogee_km": 751.0986998609569,
      "perigee_km": 749.3637975965812,
      "latitude_deg": -1.7849341711446196e-05,
      "longitude_deg": -104.26803906817516,
      "height_km": 753.2085168851703,
      "semi_major_axis_km": 7128.368248728769,
      "eccentricity": 0.00012169,
      "inclination_deg": 98.4058,
      "raan_deg": 284.262,
      "arg_perigee_deg": 91.6064,
      "mean_anomaly_deg": 268.5265,
      "mean_motion_rev_day": 14.42505811
    },
    {
      "epoch": "2026-04-05T19:38:16.645344Z",
      "apogee_km": 751.0996828234083,
      "perigee_km": 749.3617867696648,
      "latitude_deg": 5.6329541527043784e-05,
      "longitude_deg": 155.84774061234134,
      "height_km": 753.2044247073759,
      "semi_major_axis_km": 7128.367734796537,
      "eccentricity": 0.0001219,
      "inclination_deg": 98.4058,
      "raan_deg": 284.5355,
      "arg_perigee_deg": 91.3686,
      "mean_anomaly_deg": 268.7644,
      "mean_motion_rev_day": 14.42505967
    },
    {
      "epoch": "2026-04-06T03:57:41.914080Z",
      "apogee_km": 751.0979204495625,
      "perigee_km": 749.362020524909,
      "latitude_deg": -2.7306361845133222e-05,
      "longitude_deg": 30.99242414279711,
      "height_km": 753.203518010478,
      "semi_major_axis_km": 7128.366970487235,
      "eccentricity": 0.00012176,
      "inclination_deg": 98.4058,
      "raan_deg": 284.8773,
      "arg_perigee_deg": 91.3598,
      "mean_anomaly_deg": 268.7731,
      "mean_motion_rev_day": 14.42506199
    },
    {
      "epoch": "2026-04-07T13:15:22.950144Z",
      "apogee_km": 751.0937926981214,
      "perigee_km": 749.3603171272471,
      "latitude_deg": -6.15022837322734e-06,
      "longitude_deg": -108.42853232387921,
      "height_km": 753.205080593453,
      "semi_major_axis_km": 7128.364054912684,
      "eccentricity": 0.00012159,
      "inclination_deg": 98.4059,
      "raan_deg": 286.2447,
      "arg_perigee_deg": 91.6579,
      "mean_anomaly_deg": 268.475,
      "mean_motion_rev_day": 14.42507084
    },
    {
      "epoch": "2026-04-07T19:54:55.145088Z",
      "apogee_km": 751.0955972263728,
      "perigee_km": 749.3577021685769,
      "latitude_deg": -4.112574771228444e-05,
      "longitude_deg": 151.6872533302615,
      "height_km": 753.2055172420365,
      "semi_major_axis_km": 7128.363649697475,
      "eccentricity": 0.0001219,
      "inclination_deg": 98.406,
      "raan_deg": 286.5181,
      "arg_perigee_deg": 91.7094,
      "mean_anomaly_deg": 268.4235,
      "mean_motion_rev_day": 14.42507207
    },
    {
      "epoch": "2026-04-08T14:13:38.681184Z",
      "apogee_km": 751.0959056370966,
      "perigee_km": 749.3547318571191,
      "latitude_deg": -6.877907329973403e-05,
      "longitude_deg": -122.99419628604244,
      "height_km": 753.2008647007445,
      "semi_major_axis_km": 7128.362318747108,
      "eccentricity": 0.00012213,
      "inclination_deg": 98.406,
      "raan_deg": 287.2701,
      "arg_perigee_deg": 91.4875,
      "mean_anomaly_deg": 268.6454,
      "mean_motion_rev_day": 14.42507611
    }
  ]
}